{
  "norad_id": 53536,
  "name": "STARLINK-4053",
  "history": [
    {
      "epoch": "2026-03-28T21:54:25.892352Z",
      "apogee_km": 540.774166810128,
      "perigee_km": 538.7340807177297,
      "latitude_deg": 1.5257669891076197e-05,
      "longitude_deg": -177.18760580610382,
      "height_km": 540.5919576508234,
      "semi_major_axis_km": 6917.891123763929,
      "eccentricity": 0.00014745,
      "inclination_deg": 53.2175,
      "raan_deg": 337.7467,
      "arg_perigee_deg": 86.7559,
      "mean_anomaly_deg": 273.3602,
      "mean_motion_rev_day": 15.08836488
    },
    {
      "epoch": "2026-03-28T23:29:48.973056Z",
      "apogee_km": 540.7357644048525,
      "perigee_km": 538.7613998597108,
      "latitude_deg": -1.4008891907449413e-05,
      "longitude_deg": 158.60341431540826,
      "height_km": 540.5701348836467,
      "semi_major_axis_km": 6917.885582132281,
      "eccentricity": 0.0001427,
      "inclination_deg": 53.2175,
      "raan_deg": 337.4492,
      "arg_perigee_deg": 85.6964,
      "mean_anomaly_deg": 274.4191,
      "mean_motion_rev_day": 15.08838301
    },
    {
      "epoch": "2026-03-29T23:20:36.428640Z",
      "apogee_km": 540.828506576393,
      "perigee_km": 538.6977933302069,
      "latitude_deg": 5.423635168148245e-05,
      "longitude_deg": 155.46869234979687,
      "height_km": 540.3783229954968,
      "semi_major_axis_km": 6917.9001499533,
      "eccentricity": 0.000154,
      "inclination_deg": 53.2199,
      "raan_deg": 332.9915,
      "arg_perigee_deg": 74.7279,
      "mean_anomaly_deg": 285.3884,
      "mean_motion_rev_day": 15.08833535
    },
    {
      "epoch": "2026-03-29T23:20:36.429504Z",
      "apogee_km": 540.828575755394,
      "perigee_km": 538.697724151205,
      "latitude_deg": 5.3357560331701534e-05,
      "longitude_deg": 155.4686880865861,
      "height_km": 540.3783047719473,
      "semi_major_axis_km": 6917.9001499533,
      "eccentricity": 0.00015401,
      "inclination_deg": 53.2199,
      "raan_deg": 332.9915,
      "arg_perigee_deg": 74.7279,
      "mean_anomaly_deg": 285.3884,
      "mean_motion_rev_day": 15.08833535
    },
    {
      "epoch": "2026-03-30T08:52:54.899904Z",
      "apogee_km": 540.9168349879801,
      "perigee_km": 538.5608831854088,
      "latitude_deg": -5.5652631854146406e-05,
      "longitude_deg": 10.215916687990042,
      "height_km": 540.8281953206501,
      "semi_major_axis_km": 6917.875859086694,
      "eccentricity": 0.00017028,
      "inclination_deg": 53.2204,
      "raan_deg": 331.2075,
      "arg_perigee_deg": 99.4671,
      "mean_anomaly_deg": 260.6513,
      "mean_motion_rev_day": 15.08841482
    },
    {
      "epoch": "2026-03-30T21:36:00.611712Z",
      "apogee_km": 540.953643618941,
      "perigee_km": 538.569459062207,
      "latitude_deg": -2.9784558365551228e-06,
      "longitude_deg": 176.54123715820901,
      "height_km": 540.9148254664592,
      "semi_major_axis_km": 6917.898551340574,
      "eccentricity": 0.00017232,
      "inclination_deg": 53.2208,
      "raan_deg": 328.8289,
      "arg_perigee_deg": 102.4828,
      "mean_anomaly_deg": 257.6357,
      "mean_motion_rev_day": 15.08834058
    },
    {
      "epoch": "2026-03-31T21:26:47.554080Z",
      "apogee_km": 540.8579257848487,
      "perigee_km": 538.640051536885,
      "latitude_deg": -7.295206732724924e-06,
      "longitude_deg": 173.40330638382324,
      "height_km": 540.7468619624076,
      "semi_major_axis_km": 6917.885988660867,
      "eccentricity": 0.0001603,
      "inclination_deg": 53.2194,
      "raan_deg": 324.3659,
      "arg_perigee_deg": 95.2924,
      "mean_anomaly_deg": 264.8251,
      "mean_motion_rev_day": 15.08838168
    },
    {
      "epoch": "2026-04-01T21:17:34.507680Z",
      "apogee_km": 540.7358555850897,
      "perigee_km": 538.7670245350473,
      "latitude_deg": 9.08617858730291e-06,
      "longitude_deg": 170.26774394328092,
      "height_km": 540.7102119784316,
      "semi_major_axis_km": 6917.888440060068,
      "eccentricity": 0.0001423,
      "inclination_deg": 53.2183,
      "raan_deg": 319.9053,
      "arg_perigee_deg": 93.6726,
      "mean_anomaly_deg": 266.4429,
      "mean_motion_rev_day": 15.08837366
    },
    {
      "epoch": "2026-04-02T21:08:21.571008Z",
      "apogee_km": 540.7670401305286,
      "perigee_km": 538.7138141101577,
      "latitude_deg": 5.0393724224460235e-06,
      "longitude_deg": 167.13280737361742,
      "height_km": 540.5803645560583,
      "semi_major_axis_km": 6917.877427120343,
      "eccentricity": 0.0001484,
      "inclination_deg": 53.2187,
      "raan_deg": 315.4458,
      "arg_perigee_deg": 86.8877,
      "mean_anomaly_deg": 273.2285,
      "mean_motion_rev_day": 15.08840969
    }
  ]
}